STARLINK-2135
1 27408C 21005BM  21325.13468350 -.00014995  00000-0 -10047-2 0  3251
2 27408  53.0546 237.6197 0002033  64.2045  80.4141 15.06412575    17
